#aV2009  8 19  0  0   .00000000      96 DD+AD WGS84 FIT  NGA
## 1545 259200.00000000   900.00000000 55062  .0000000000000
+   31     1  2  3  4  6  7  8  9 10 11 12 13 14 15 16 17 18
+         19 20 21 22 23 24 25 26 27 28 29 30 31 32  0  0  0
+          0  0  0  0  0  0  0  0  0  0  0  0  0  0  0  0  0
+          0  0  0  0  0  0  0  0  0  0  0  0  0  0  0  0  0
+          0  0  0  0  0  0  0  0  0  0  0  0  0  0  0  0  0
++         0  0  0  0  0  0  0  0  0  0  0  0  0  0  0  0  0
++         0  0  0  0  0  0  0  0  0  0  0  0  0  0  0  0  0
++         0  0  0  0  0  0  0  0  0  0  0  0  0  0  0  0  0
++         0  0  0  0  0  0  0  0  0  0  0  0  0  0  0  0  0
++         0  0  0  0  0  0  0  0  0  0  0  0  0  0  0  0  0
%c cc cc ccc ccc cccc cccc cccc cccc ccccc ccccc ccccc ccccc
%c cc cc ccc ccc cccc cccc cccc cccc ccccc ccccc ccccc ccccc
%f  0.0000000  0.000000000  0.00000000000  0.000000000000000
%f  0.0000000  0.000000000  0.00000000000  0.000000000000000
%i    0    0    0    0      0      0      0      0         0
%i    0    0    0    0      0      0      0      0         0
/*      NGA, ST. LOUIS,MO.                                  
/*   EPHEMERIS COMPUTED FROM  3 DAYS OF DATA                
/* CCCCCCCCCCCCCCCCCCCCCCCCCCCCCCCCCCCCCCCCCCCCCCCCCCCCCCCCC
/* CCCCCCCCCCCCCCCCCCCCCCCCCCCCCCCCCCCCCCCCCCCCCCCCCCCCCCCCC
*  2009  8 19 15 15   .00000000                                                 
P  1  15543.126020  10279.619264  18867.699226    -58.778189                    
V  1   3518.800950  23906.390017 -15737.793316       .011712                    
P  2  -2717.275552  15489.637341  21349.036484    166.353780                    
V  2 -26035.862193  -8349.204289   2314.179482       .024043                    
P  3   4906.077735 -21702.180608 -14563.391436    435.785221                    
V  3  14413.835529 -11470.848591  22812.489368       .050045                    
P  4 -15127.114273   9833.191918  19468.083633   -226.727878                    
V  4 -23197.027553  -9356.262359 -12841.145606      -.170686                    
P  6  10191.078908 -21552.398236 -11436.801362    222.199099                    
V  6  12938.117314  -8032.851128  26321.603443       .083390                    
P  7 -25654.056494  -6474.965681  -3104.727388     13.099599                    
V  7  -2902.159395  -3566.109193  31502.595072      -.007468                    
P  8 -22193.950712   1491.539096 -14942.811010   -217.415326                    
V  8 -16830.389798  -8071.624430  23765.710167      -.018638                    
P  9  17251.125448  15155.867641 -14064.952339     72.848147                    
V  9 -16425.204160  -3359.915145 -24894.415535       .021050                    
P 10    591.837404  25775.117709   5430.862189    -21.595493                    
V 10  -4336.182201  -6527.953847  30867.393809      -.008621                    
P 11 -20264.536564 -12386.692101 -12452.138649    -15.784689                    
V 11  15866.088782  -1999.061812 -23889.332837      -.017344                    
P 12  11823.404083  21153.180779  11073.433946   -232.050509                    
V 12    527.969873  14072.248788 -27466.809285       .058732                    
P 13 -20326.001481   1899.251395  16871.466984    303.391193                    
V 13  16357.599874 -14143.337454  21123.094900       .005755                    
P 14  21751.580292 -14703.635951  -3391.764965    -62.979574                    
V 14  -2194.561741   4392.830098 -32058.219047       .053811                    
P 15    721.323941  17927.779616 -19536.886549   -314.963111                    
V 15 -19363.571569  15706.271696  13745.852811      -.017507                    
P 16   3504.343197 -23816.830209  10988.227452     21.403397                    
V 16   4740.859571  13338.074550  27757.346701      -.037746                    
P 17 -21664.644466  14626.782353  -4002.707292     78.475036                    
V 17   2062.135213  -5619.039227 -31325.274101       .027604                    
P 18  15919.310155   2909.182490 -20870.302289      6.310432                    
V 18   3966.261157  26792.410442   6303.128650       .029247                    
P 19  -1885.832378 -16630.419618 -20507.701664     14.490634                    
V 19  21609.736150 -14919.806875  10349.162436      -.015869                    
P 20 -13419.934403 -19419.913302  12097.069714     74.378721                    
V 20   -639.609963 -15825.213652 -25808.624447      -.009484                    
P 21  25773.512766   4679.999539  -5802.205542     -4.070747                    
V 21   6138.865862   5458.308335  29581.925764      -.022288                    
P 22  13146.384956 -10951.405321 -20130.523831    192.927739                    
V 22   5418.078330  25489.727993 -10326.068197      -.008023                    
P 23 -11808.446466  -9511.077925  21785.207534    389.378940                    
V 23  20869.047048 -18225.592075   3051.994652      -.003099                    
P 24  21924.207028  13457.979598   6174.306853    213.637068                    
V 24  -8388.255060    140.463991  30352.077531       .030319                    
P 25 -24144.549738  -9555.264967   5410.426473    559.493670                    
V 25   6883.879591   -985.821286  31102.042490       .158209                    
P 26  22506.616908  -6215.471723 -13695.137573     64.331780                    
V 26 -12223.995446  10692.498499 -25519.377194      -.003909                    
P 27  13263.674640  15294.343865 -16518.431601     75.570625                    
V 27 -21907.837016  -4280.476427 -20695.024614       .032244                    
P 28 -13415.129849   7823.455603 -21066.301677    -26.214449                    
V 28  -5298.053624 -27312.001692  -6937.862097       .000386                    
P 29  19341.962948    549.053601  18274.084261     50.042672                    
V 29 -16723.653735  15893.557435  17360.870190       .033387                    
P 30  15695.882163  11815.016802  17526.604966    170.006492                    
V 30   3657.875165  22794.314627 -18173.958207       .029611                    
P 31  12698.248953 -10742.353463  20945.191460    -64.881970                    
V 31  24465.738052   8985.525120 -10186.888613      -.000426                    
P 32  -7746.426500 -24639.264217   7165.009560    212.199594                    
V 32   1367.873459  -8721.637336 -29887.177785      -.066961                    
EOF
